[{"OBJECT_NAME":"EMISAT","OBJECT_ID":"2019-018A","EPOCH":"2026-03-09T23:07:44.271840","MEAN_MOTION":14.43625084,"ECCENTRICITY":0.00191389,"INCLINATION":98.4768,"RA_OF_ASC_NODE":128.257,"ARG_OF_PERICENTER":153.4906,"MEAN_ANOMALY":206.7268,"EPHEMERIS_TYPE":0,"CLASSIFICATION_TYPE":"U","NORAD_CAT_ID":44078,"ELEMENT_SET_NO":999,"REV_AT_EPOCH":36574,"BSTAR":5.8527741e-5,"MEAN_MOTION_DOT":1.55e-6,"MEAN_MOTION_DDOT":0},{"OBJECT_NAME":"FENGYUN 1C DEB","OBJECT_ID":"1999-025CNL","EPOCH":"2026-03-09T11:09:29.196000","MEAN_MOTION":14.48572842,"ECCENTRICITY":0.00265291,"INCLINATION":98.509,"RA_OF_ASC_NODE":305.0135,"ARG_OF_PERICENTER":258.0635,"MEAN_ANOMALY":101.7583,"EPHEMERIS_TYPE":0,"CLASSIFICATION_TYPE":"U","NORAD_CAT_ID":31959,"ELEMENT_SET_NO":999,"REV_AT_EPOCH":65608,"BSTAR":0.002499597,"MEAN_MOTION_DOT":9.401e-5,"MEAN_MOTION_DDOT":0}]
